{
    "satellites": [
        {
            "name": "starlink368",
            "title": "Starlink-368 (G10-33) (new)",
            "tle": [
                "1 70215C 26055AE  26081.36020833  .00443210  00000+0  51332-3 0   817",
                "2 70215  53.1624 275.0788 0004821 291.6463 228.5412 16.07889641    16"
            ],
            "stdMag": 5,
            "noradId": "70215",
            "intDes": null,
            "tleUrl": "http://celestrak.org/NORAD/elements/supplemental/sup-gp.php?FILE=starlink&FORMAT=tle",
            "launchDate": "2026-03-19T14:20:10.000Z",
            "active": true,
            "batch": [
                {
                    "noradId": "70215",
                    "tle": [
                        "1 70215C 26055AE  26081.36020833  .00443210  00000+0  51332-3 0   817",
                        "2 70215  53.1624 275.0788 0004821 291.6463 228.5412 16.07889641    16"
                    ]
                },
                {
                    "noradId": "70209",
                    "tle": [
                        "1 70209C 26055Y   26081.43104167  .00360540  00000+0  43165-3 0   810",
                        "2 70209  53.1622 274.7124 0003124 295.2261 273.7489 16.07427072    10"
                    ]
                },
                {
                    "noradId": "70212",
                    "tle": [
                        "1 70212C 26055AB  26081.36159722  .00480470  00000+0  56291-3 0   812",
                        "2 70212  53.1625 275.0726 0004586 292.0341 235.6860 16.07694096    18"
                    ]
                },
                {
                    "noradId": "70214",
                    "tle": [
                        "1 70214C 26055AD  26081.30326389  .00449060  00000+0  52409-3 0   810",
                        "2 70214  53.1627 275.3763 0005357 290.9033 259.1931 16.07760799    12"
                    ]
                },
                {
                    "noradId": "70213",
                    "tle": [
                        "1 70213C 26055AC  26081.42687500  .00399760  00000+0  47303-3 0   815",
                        "2 70213  53.1622 274.7330 0003716 292.9396 252.4128 16.07586827    12"
                    ]
                },
                {
                    "noradId": "70211",
                    "tle": [
                        "1 70211C 26055AA  26081.37479167  .00462820  00000+0  54536-3 0   819",
                        "2 70211  53.1629 275.0052 0004189 293.4052 310.5230 16.07616783    17"
                    ]
                },
                {
                    "noradId": "70207",
                    "tle": [
                        "1 70207C 26055W   26081.41020833  .00230140  00000+0  28124-3 0   813",
                        "2 70207  53.1623 274.8225 0002182 299.6756 147.9909 16.07174136    11"
                    ]
                },
                {
                    "noradId": "70210",
                    "tle": [
                        "1 70210C 26055Z   26081.34284722  .00359390  00000+0  42998-3 0   812",
                        "2 70210  53.1625 275.1717 0003527 292.5067 126.0840 16.07435154    10"
                    ]
                },
                {
                    "noradId": "70208",
                    "tle": [
                        "1 70208C 26055X   26081.29909722  .00290620  00000+0  35175-3 0   816",
                        "2 70208  53.1627 275.4009 0003762 293.3010 231.5042 16.07285038    14"
                    ]
                },
                {
                    "noradId": "70205",
                    "tle": [
                        "1 70205C 26055U   26081.40534722  .00181750  00000+0  22353-3 0   817",
                        "2 70205  53.1623 274.8479 0002061 301.6096 117.7128 16.07097414    18"
                    ]
                },
                {
                    "noradId": "70201",
                    "tle": [
                        "1 70201C 26055Q   26081.31020833  .00040721  00000+0  51455-4 0   814",
                        "2 70201  53.1626 275.3449 0001569 307.3081 280.6021 16.06740938    16"
                    ]
                },
                {
                    "noradId": "70203",
                    "tle": [
                        "1 70203C 26055S   26081.42270833  .00117630  00000+0  14657-3 0   811",
                        "2 70203  53.1622 274.7583 0001434 308.7880 210.6467 16.06925380    12"
                    ]
                },
                {
                    "noradId": "70204",
                    "tle": [
                        "1 70204C 26055T   26081.32965278  .00098270  00000+0  12346-3 0   816",
                        "2 70204  53.1626 275.2436 0001723 302.4309  38.1878 16.06803940    14"
                    ]
                },
                {
                    "noradId": "70202",
                    "tle": [
                        "1 70202C 26055R   26081.32201389  .00173860  00000+0  21562-3 0   819",
                        "2 70202  53.1626 275.2825 0002222 299.6098 357.1591 16.06969358    13"
                    ]
                },
                {
                    "noradId": "70200",
                    "tle": [
                        "1 70200C 26055P   26081.32548611 -.00026682  00000+0 -33915-4 0   816",
                        "2 70200  53.1626 275.2654 0001360 303.6449  12.5511 16.06681198    16"
                    ]
                },
                {
                    "noradId": "70199",
                    "tle": [
                        "1 70199C 26055N   26081.34770833 -.00083548  00000+0 -10687-3 0   812",
                        "2 70199  53.1624 275.1502 0000873 319.2332 125.3567 16.06609849    11"
                    ]
                },
                {
                    "noradId": "70198",
                    "tle": [
                        "1 70198C 26055M   26081.42965278 -.00055985  00000+0 -72118-4 0   811",
                        "2 70198  53.1621 274.7235 0000450 322.8453 235.7709 16.06484699    18"
                    ]
                },
                {
                    "noradId": "70197",
                    "tle": [
                        "1 70197C 26055L   26081.39284722 -.00117690  00000+0 -15236-3 0   813",
                        "2 70197  53.1623 274.9159 0000530 352.8848 352.4868 16.06436736    18"
                    ]
                },
                {
                    "noradId": "70196",
                    "tle": [
                        "1 70196C 26055K   26081.31993056 -.00194510  00000+0 -25470-3 0   818",
                        "2 70196  53.1626 275.2962 0000590 325.9122 317.2278 16.06291164    16"
                    ]
                },
                {
                    "noradId": "70192",
                    "tle": [
                        "1 70192C 26055F   26081.42131944 -.00281450  00000+0 -38083-3 0   810",
                        "2 70192  53.1622 274.7716 0000387  83.7873  64.3910 16.05806722    19"
                    ]
                },
                {
                    "noradId": "70195",
                    "tle": [
                        "1 70195C 26055J   26081.41159722 -.00201830  00000+0 -26313-3 0   813",
                        "2 70195  53.1622 274.8184 0000311 341.2712 112.4524 16.06365314    17"
                    ]
                },
                {
                    "noradId": "70190",
                    "tle": [
                        "1 70190C 26055D   26081.35395833 -.00449920  00000+0 -61857-3 0   812",
                        "2 70190  53.1625 275.1232 0000207  60.3383  57.6712 16.05632967    19"
                    ]
                },
                {
                    "noradId": "70193",
                    "tle": [
                        "1 70193C 26055G   26081.39354167 -.00229370  00000+0 -30842-3 0   819",
                        "2 70193  53.1623 274.9157 0000316  70.3891 277.3513 16.05882037    14"
                    ]
                },
                {
                    "noradId": "70188",
                    "tle": [
                        "1 70188C 26055B   26081.40881944 -.00488710  00000+0 -67818-3 0   811",
                        "2 70188  53.1622 274.8383 0000311  80.4969 354.6101 16.05501054    19"
                    ]
                },
                {
                    "noradId": "70189",
                    "tle": [
                        "1 70189C 26055C   26081.32618056 -.00427390  00000+0 -58318-3 0   817",
                        "2 70189  53.1625 275.2672 0000128  57.9887 259.5476 16.05744001    12"
                    ]
                },
                {
                    "noradId": "70191",
                    "tle": [
                        "1 70191C 26055E   26081.35673611 -.00335480  00000+0 -45572-3 0   817",
                        "2 70191  53.1624 275.1081 0000482  50.2922  84.1264 16.05770449    18"
                    ]
                },
                {
                    "noradId": "70194",
                    "tle": [
                        "1 70194C 26055H   26081.31159722 -.00218360  00000+0 -29111-3 0   816",
                        "2 70194  53.1626 275.3418 0000309  23.7869 210.0868 16.06014861    12"
                    ]
                },
                {
                    "noradId": "70187",
                    "tle": [
                        "1 70187C 26055A   26081.31715278 -.00484690  00000+0 -67227-3 0   813",
                        "2 70187  53.1626 275.3158 0000206  59.3163 205.1766 16.05507288    14"
                    ]
                }
            ]
        }
    ],
    "config": {}
}